OBJECT_NAME,OBJECT_ID,EPOCH,MEAN_MOTION,ECCENTRICITY,INCLINATION,RA_OF_ASC_NODE,ARG_OF_PERICENTER,MEAN_ANOMALY,EPHEMERIS_TYPE,CLASSIFICATION_TYPE,NORAD_CAT_ID,ELEMENT_SET_NO,REV_AT_EPOCH,BSTAR,MEAN_MOTION_DOT,MEAN_MOTION_DDOT
ONEWEB-0157,2021-025P,2026-06-25T21:56:21.843744,13.13470568,.0002195,87.8967,318.4855,103.4683,256.6691,0,U,48055,999,25471,.74755E-3,.286E-5,0
ONEWEB-0162,2021-025Q,2026-06-25T21:22:01.334208,13.13470462,.0001962,87.8965,318.4909,94.0547,266.0807,0,U,48056,999,25468,-.77461E-3,-.27E-5,0
ONEWEB-0155,2021-025R,2026-06-25T21:31:57.887328,13.13470903,.0001926,87.8964,318.4858,103.4142,256.7202,0,U,48057,999,25482,-.34927E-3,-.115E-5,0
ONEWEB-0149,2021-025S,2026-06-26T03:32:45.373632,13.13470415,.000199,87.8965,318.4396,93.0918,267.0438,0,U,48058,999,25466,.10083E-2,.381E-5,0
ONEWEB-0148,2021-025T,2026-06-25T21:10:01.401024,13.13470463,.0002365,87.8961,318.4987,88.5997,271.5403,0,U,48059,999,25475,-.82289E-3,-.288E-5,0
ONEWEB-0160,2021-025U,2026-06-25T21:34:23.276064,13.13472077,.0001162,87.8961,318.4915,86.5842,273.5420,0,U,48060,999,25470,-.29303E-3,-.94E-6,0
ONEWEB-0163,2021-025V,2026-06-25T21:12:26.915040,13.13468573,.0002167,87.8969,318.4896,102.6479,257.4893,0,U,48061,999,25482,-.14137E-2,-.503E-5,0
ONEWEB-0159,2021-025W,2026-06-25T22:49:57.628416,13.13469281,.000202,87.8971,318.4698,103.0494,257.0861,0,U,48062,999,25475,-.11146E-2,-.394E-5,0
ONEWEB-0164,2021-025X,2026-06-25T22:23:09.372768,13.13469554,.000179,87.8971,318.4800,97.9913,262.1419,0,U,48063,999,25473,.2747E-3,.113E-5,0
ONEWEB-0167,2021-025Y,2026-06-25T23:03:22.633632,13.13468498,.0002012,87.8960,318.4836,117.3236,242.8098,0,U,48064,999,25472,-.848E-3,-.297E-5,0
ONEWEB-0166,2021-025Z,2026-06-26T03:15:41.475744,13.13472174,.0001942,87.8970,318.4209,97.2602,262.8748,0,U,48065,999,25482,.24642E-3,.103E-5,0
ONEWEB-0151,2021-025AA,2026-06-26T03:18:06.422112,13.13471126,.0001831,87.8962,318.4367,102.2014,257.9321,0,U,48066,999,25476,.40786E-3,.162E-5,0
ONEWEB-0170,2021-025AB,2026-06-26T03:30:17.716032,13.13469767,.0001616,87.8961,318.4380,103.1143,257.0166,0,U,48067,999,25472,-.32556E-2,-.1176E-4,0
ONEWEB-0168,2021-025AC,2026-06-25T21:39:15.340896,13.13478051,.0001982,87.8969,318.4857,99.2484,260.8869,0,U,48068,999,25470,-.53326E-2,-.1934E-4,0
ONEWEB-0173,2021-025AD,2026-06-25T21:27:05.093280,13.13471432,.00021,87.8962,318.4887,106.8044,253.3315,0,U,48069,999,25494,-.49436E-3,-.168E-5,0
ONEWEB-0171,2021-025AE,2026-06-25T22:20:43.054368,13.13470235,.0001809,87.8959,318.4891,100.6706,259.4627,0,U,48070,999,25476,.4261E-3,.168E-5,0
ONEWEB-0172,2021-025AF,2026-06-26T03:20:33.215712,13.13470275,.0001895,87.8965,318.4381,103.4599,256.6741,0,U,48071,999,25568,.84741E-3,.322E-5,0
ONEWEB-0174,2021-025AG,2026-06-25T21:24:39.168000,13.13471060,.0002056,87.8966,318.4863,96.0276,264.1088,0,U,48072,999,25497,-.4743E-3,-.16E-5,0
ONEWEB-0175,2021-025AH,2026-06-25T22:08:31.986816,13.13471049,.000167,87.8970,318.4650,107.7181,252.4131,0,U,48073,999,25463,.83052E-3,.316E-5,0
ONEWEB-0177,2021-025AJ,2026-06-25T22:25:35.603040,13.13467635,.0002112,87.8968,318.4810,98.3573,261.7796,0,U,48074,999,25482,.18466E-3,.8E-6,0
ONEWEB-0178,2021-025AK,2026-06-25T21:02:54.883104,13.13468491,.0001888,87.8957,318.5041,106.3455,253.7882,0,U,48075,999,25486,-.6756E-3,-.234E-5,0
ONEWEB-0108,2021-025AL,2026-06-26T03:22:59.527200,13.13471270,.0001835,87.8971,318.4315,91.2289,268.9050,0,U,48076,999,25482,.58978E-3,.228E-5,0
ONEWEB-0169,2021-025AM,2026-06-25T22:40:13.002816,13.13470119,.0001987,87.8961,318.4777,96.6093,263.5262,0,U,48077,999,25345,-.61659E-3,-.212E-5,0
ONEWEB-0176,2021-031A,2026-06-25T20:33:14.257728,13.14503439,.0002016,87.8970,287.9710,104.7756,255.3597,0,U,48210,999,24945,-.36858E-3,-.124E-5,0
ONEWEB-0184,2021-031B,2026-06-25T19:54:25.149600,13.14503566,.0001944,87.8975,287.9782,125.1334,234.9978,0,U,48211,999,24942,.30765E-3,.127E-5,0
ONEWEB-0179,2021-031C,2026-06-25T19:10:43.486752,14.25529244,.0219257,87.8995,284.8997,228.8512,129.3582,0,U,48212,999,25027,.53368E-4,.18E-5,0
ONEWEB-0180,2021-031D,2026-06-25T19:59:00.662784,13.14502069,.0002265,87.8984,287.9740,107.5664,252.5713,0,U,48213,999,24935,-.68935E-3,-.243E-5,0
ONEWEB-0218,2021-031E,2026-06-25T20:30:57.951360,13.14502104,.0002219,87.8984,287.9693,123.4033,236.7309,0,U,48214,999,24951,-.21224E-3,-.66E-6,0
ONEWEB-0209,2021-031F,2026-06-25T20:14:58.348032,13.14501943,.0002219,87.8970,287.9869,101.3826,258.7553,0,U,48215,999,24951,.31808E-3,.131E-5,0
ONEWEB-0198,2021-031G,2026-06-25T19:52:20.716320,13.14503100,.0002289,87.8960,287.9888,110.0468,250.0908,0,U,48216,999,24962,.37368E-3,.151E-5,0
